STARLINK-31250          
1 58839U 24017P   26068.64585435  .00000002  00000+0  12177-4 0  9992
2 58839  53.1603 194.2827 0000738  71.9336 288.1745 15.30199938120144
JINJUSAT-1B             
1 63210U 25052A   26068.66363707  .00019955  00000+0  68430-3 0  9998
2 63210  97.4113 325.4613 0005550  82.1930 277.9941 15.30194857 54866
